CTC1_L_00190001-01
1 10000U 25223BL  26075.70031250  .00000000  00000+0  00000-0 0  9992
2 10000  90.0000   0.0000 0000000   0.0000   0.0000 13.69880518    12
CTC1_L_00190001-02
1 10001U 22926OL  26075.70031250  .00000000  00000+0  00000-0 0  9990
2 10001  90.0000   0.0000 0000000   0.0000  90.0000 13.69880518    12
CTC1_L_00190001-03
1 10002U 23676XD  26075.70031250  .00000000  00000+0  00000-0 0  9994
2 10002  90.0000   0.0000 0000000   0.0000 180.0000 13.69880518    13
CTC1_L_00190001-04
1 10003U 24309LF  26075.70031250  .00000000  00000+0  00000-0 0  9999
2 10003  90.0000   0.0000 0000000   0.0000 270.0000 13.69880518    14
CTC1_L_00190002-01
1 10004U 23015QJ  26075.70031250  .00000000  00000+0  00000-0 0  9993
2 10004  90.0000  12.0000 0000000   0.0000  12.0000 13.69880518    12
CTC1_L_00190002-02
1 10005U 25139FC  26075.70031250  .00000000  00000+0  00000-0 0  9993
2 10005  90.0000  12.0000 0000000   0.0000 102.0000 13.69880518    13
CTC1_L_00190002-03
1 10006U 24190MK  26075.70031250  .00000000  00000+0  00000-0 0  9990
2 10006  90.0000  12.0000 0000000   0.0000 192.0000 13.69880518    13
CTC1_L_00190002-04
1 10007U 26787EO  26075.70031250  .00000000  00000+0  00000-0 0  9995
2 10007  90.0000  12.0000 0000000   0.0000 282.0000 13.69880518    14
CTC1_L_00190003-01
1 10008U 24120VT  26075.70031250  .00000000  00000+0  00000-0 0  9995
2 10008  90.0000  24.0000 0000000   0.0000  24.0000 13.69880518    12
CTC1_L_00190003-02
1 10009U 23623JX  26075.70031250  .00000000  00000+0  00000-0 0  9993
2 10009  90.0000  24.0000 0000000   0.0000 114.0000 13.69880518    13
CTC1_L_00190003-03
1 10010U 25052ZF  26075.70031250  .00000000  00000+0  00000-0 0  9993
2 10010  90.0000  24.0000 0000000   0.0000 204.0000 13.69880518    15
CTC1_L_00190003-04
1 10011U 26395HR  26075.70031250  .00000000  00000+0  00000-0 0  9995
2 10011  90.0000  24.0000 0000000   0.0000 294.0000 13.69880518    15
CTC1_L_00190004-01
1 10012U 26874VI  26075.70031250  .00000000  00000+0  00000-0 0  9998
2 10012  90.0000  36.0000 0000000   0.0000  36.0000 13.69880518    13
CTC1_L_00190004-02
1 10013U 23621HG  26075.70031250  .00000000  00000+0  00000-0 0  9996
2 10013  90.0000  36.0000 0000000   0.0000 126.0000 13.69880518    14
CTC1_L_00190004-03
1 10014U 24780UO  26075.70031250  .00000000  00000+0  00000-0 0  9994
2 10014  90.0000  36.0000 0000000   0.0000 216.0000 13.69880518    15
CTC1_L_00190004-04
1 10015U 26161KC  26075.70031250  .00000000  00000+0  00000-0 0  9990
2 10015  90.0000  36.0000 0000000   0.0000 306.0000 13.69880518    16
CTC1_L_00190005-01
1 10016U 26381BE  26075.70031250  .00000000  00000+0  00000-0 0  9995
2 10016  90.0000  48.0000 0000000   0.0000  48.0000 13.69880518    13
CTC1_L_00190005-02
1 10017U 23428GH  26075.70031250  .00000000  00000+0  00000-0 0  9995
2 10017  90.0000  48.0000 0000000   0.0000 138.0000 13.69880518    14
CTC1_L_00190005-03
1 10018U 24790IQ  26075.70031250  .00000000  00000+0  00000-0 0  9999
2 10018  90.0000  48.0000 0000000   0.0000 228.0000 13.69880518    15
CTC1_L_00190005-04
1 10019U 22894M   26075.70031250  .00000000  00000+0  00000-0 0  9993
2 10019  90.0000  48.0000 0000000   0.0000 318.0000 13.69880518    16
CTC1_L_00190006-01
1 10020U 24793GT  26075.70031250  .00000000  00000+0  00000-0 0  9995
2 10020  90.0000  60.0000 0000000   0.0000  60.0000 13.69880518    16
CTC1_L_00190006-02
1 10021U 24842BR  26075.70031250  .00000000  00000+0  00000-0 0  9991
2 10021  90.0000  60.0000 0000000   0.0000 150.0000 13.69880518    17
CTC1_L_00190006-03
1 10022U 22780JC  26075.70031250  .00000000  00000+0  00000-0 0  9991
2 10022  90.0000  60.0000 0000000   0.0000 240.0000 13.69880518    18
CTC1_L_00190006-04
1 10023U 24510CE  26075.70031250  .00000000  00000+0  00000-0 0  9995
2 10023  90.0000  60.0000 0000000   0.0000 330.0000 13.69880518    19
CTC1_L_00190007-01
1 10024U 26506AB  26075.70031250  .00000000  00000+0  00000-0 0  9993
2 10024  90.0000  72.0000 0000000   0.0000  72.0000 13.69880518    16
CTC1_L_00190007-02
1 10025U 26026GP  26075.70031250  .00000000  00000+0  00000-0 0  9991
2 10025  90.0000  72.0000 0000000   0.0000 162.0000 13.69880518    17
CTC1_L_00190007-03
1 10026U 26238BQ  26075.70031250  .00000000  00000+0  00000-0 0  9997
2 10026  90.0000  72.0000 0000000   0.0000 252.0000 13.69880518    18
CTC1_L_00190007-04
1 10027U 25046EW  26075.70031250  .00000000  00000+0  00000-0 0  9994
2 10027  90.0000  72.0000 0000000   0.0000 342.0000 13.69880518    19
CTC1_L_00190008-01
1 10028U 26019BU  26075.70031250  .00000000  00000+0  00000-0 0  9996
2 10028  90.0000  84.0000 0000000   0.0000  84.0000 13.69880518    16
CTC1_L_00190008-02
1 10029U 23581BU  26075.70031250  .00000000  00000+0  00000-0 0  9998
2 10029  90.0000  84.0000 0000000   0.0000 174.0000 13.69880518    17
CTC1_L_00190008-03
1 10030U 26397OY  26075.70031250  .00000000  00000+0  00000-0 0  9998
2 10030  90.0000  84.0000 0000000   0.0000 264.0000 13.69880518    19
CTC1_L_00190008-04
1 10031U 26057DZ  26075.70031250  .00000000  00000+0  00000-0 0  9992
2 10031  90.0000  84.0000 0000000   0.0000 354.0000 13.69880518    10
CTC1_L_00190009-01
1 10032U 26846XS  26075.70031250  .00000000  00000+0  00000-0 0  9999
2 10032  90.0000  96.0000 0000000   0.0000  96.0000 13.69880518    17
CTC1_L_00190009-02
1 10033U 22910GP  26075.70031250  .00000000  00000+0  00000-0 0  9998
2 10033  90.0000  96.0000 0000000   0.0000 186.0000 13.69880518    18
CTC1_L_00190009-03
1 10034U 24076ZQ  26075.70031250  .00000000  00000+0  00000-0 0  9994
2 10034  90.0000  96.0000 0000000   0.0000 276.0000 13.69880518    19
CTC1_L_00190009-04
1 10035U 26107YZ  26075.70031250  .00000000  00000+0  00000-0 0  9992
2 10035  90.0000  96.0000 0000000   0.0000   6.0000 13.69880518    11
CTC1_L_00190010-01
1 10036U 26003GS  26075.70031250  .00000000  00000+0  00000-0 0  9998
2 10036  90.0000 108.0000 0000000   0.0000 108.0000 13.69880518    19
CTC1_L_00190010-02
1 10037U 25848UV  26075.70031250  .00000000  00000+0  00000-0 0  9995
2 10037  90.0000 108.0000 0000000   0.0000 198.0000 13.69880518    19
CTC1_L_00190010-03
1 10038U 23573YL  26075.70031250  .00000000  00000+0  00000-0 0  9999
2 10038  90.0000 108.0000 0000000   0.0000 288.0000 13.69880518    10
CTC1_L_00190010-04
1 10039U 26129FS  26075.70031250  .00000000  00000+0  00000-0 0  9990
2 10039  90.0000 108.0000 0000000   0.0000  18.0000 13.69880518    12
CTC1_L_00190011-01
1 10040U 24614QO  26075.70031250  .00000000  00000+0  00000-0 0  9999
2 10040  90.0000 120.0000 0000000   0.0000 120.0000 13.69880518    12
CTC1_L_00190011-02
1 10041U 24139XS  26075.70031250  .00000000  00000+0  00000-0 0  9992
2 10041  90.0000 120.0000 0000000   0.0000 210.0000 13.69880518    13
CTC1_L_00190011-03
1 10042U 24497KH  26075.70031250  .00000000  00000+0  00000-0 0  9990
2 10042  90.0000 120.0000 0000000   0.0000 300.0000 13.69880518    14
CTC1_L_00190011-04
1 10043U 23643LX  26075.70031250  .00000000  00000+0  00000-0 0  9993
2 10043  90.0000 120.0000 0000000   0.0000  30.0000 13.69880518    15
CTC1_L_00190012-01
1 10044U 26531JY  26075.70031250  .00000000  00000+0  00000-0 0  9993
2 10044  90.0000 132.0000 0000000   0.0000 132.0000 13.69880518    12
CTC1_L_00190012-02
1 10045U 26632WL  26075.70031250  .00000000  00000+0  00000-0 0  9996
2 10045  90.0000 132.0000 0000000   0.0000 222.0000 13.69880518    13
CTC1_L_00190012-03
1 10046U 22984O   26075.70031250  .00000000  00000+0  00000-0 0  9993
2 10046  90.0000 132.0000 0000000   0.0000 312.0000 13.69880518    14
CTC1_L_00190012-04
1 10047U 25792OI  26075.70031250  .00000000  00000+0  00000-0 0  9994
2 10047  90.0000 132.0000 0000000   0.0000  42.0000 13.69880518    15
CTC1_L_00190013-01
1 10048U 23841NY  26075.70031250  .00000000  00000+0  00000-0 0  9998
2 10048  90.0000 144.0000 0000000   0.0000 144.0000 13.69880518    12
CTC1_L_00190013-02
1 10049U 23372BV  26075.70031250  .00000000  00000+0  00000-0 0  9998
2 10049  90.0000 144.0000 0000000   0.0000 234.0000 13.69880518    13
CTC1_L_00190013-03
1 10050U 22618JB  26075.70031250  .00000000  00000+0  00000-0 0  9992
2 10050  90.0000 144.0000 0000000   0.0000 324.0000 13.69880518    15
CTC1_L_00190013-04
1 10051U 25653GD  26075.70031250  .00000000  00000+0  00000-0 0  9995
2 10051  90.0000 144.0000 0000000   0.0000  54.0000 13.69880518    16
CTC1_L_00190014-01
1 10052U 23852TU  26075.70031250  .00000000  00000+0  00000-0 0  9995
2 10052  90.0000 156.0000 0000000   0.0000 156.0000 13.69880518    13
CTC1_L_00190014-02
1 10053U 23481ZK  26075.70031250  .00000000  00000+0  00000-0 0  9994
2 10053  90.0000 156.0000 0000000   0.0000 246.0000 13.69880518    14
CTC1_L_00190014-03
1 10054U 26308TU  26075.70031250  .00000000  00000+0  00000-0 0  9996
2 10054  90.0000 156.0000 0000000   0.0000 336.0000 13.69880518    15
CTC1_L_00190014-04
1 10055U 25079WU  26075.70031250  .00000000  00000+0  00000-0 0  9991
2 10055  90.0000 156.0000 0000000   0.0000  66.0000 13.69880518    16
CTC1_L_00190015-01
1 10056U 25770BB  26075.70031250  .00000000  00000+0  00000-0 0  9990
2 10056  90.0000 168.0000 0000000   0.0000 168.0000 13.69880518    13
CTC1_L_00190015-02
1 10057U 23792UP  26075.70031250  .00000000  00000+0  00000-0 0  9993
2 10057  90.0000 168.0000 0000000   0.0000 258.0000 13.69880518    14
CTC1_L_00190015-03
1 10058U 24353XE  26075.70031250  .00000000  00000+0  00000-0 0  9998
2 10058  90.0000 168.0000 0000000   0.0000 348.0000 13.69880518    15
CTC1_L_00190015-04
1 10059U 23223HZ  26075.70031250  .00000000  00000+0  00000-0 0  9994
2 10059  90.0000 168.0000 0000000   0.0000  78.0000 13.69880518    16
CTC1_L_00190016-01
1 10060U 24125RA  26075.70031250  .00000000  00000+0  00000-0 0  9998
2 10060  90.0000 180.0000 0000000   0.0000 180.0000 13.69880518    16
CTC1_L_00190016-02
1 10061U 25445BE  26075.70031250  .00000000  00000+0  00000-0 0  9995
2 10061  90.0000 180.0000 0000000   0.0000 270.0000 13.69880518    17
